{"spkid": "20026663", "covariance": {"data": [["2.17290097958717E-16", "-3.361708949158113E-16", "-3.084518389946941E-16", "3.007728590632944E-14", "-5.666087663734172E-15", "-2.4477474894694E-15"], ["-3.361708949158113E-16", "5.201207381760789E-16", "9.36077961077642E-16", "-4.695844125247699E-14", "9.397904787115746E-15", "3.869295120716719E-15"], ["-3.084518389946941E-16", "9.36077961077642E-16", "9.959552547745181E-12", "-7.112590711258328E-12", "1.414987465913881E-11", "1.345232179829588E-12"], ["3.007728590632944E-14", "-4.695844125247699E-14", "-7.112590711258328E-12", "3.341008610713286E-11", "-3.602318920901692E-11", "-1.288577817611629E-11"], ["-5.666087663734172E-15", "9.397904787115746E-15", "1.414987465913881E-11", "-3.602318920901692E-11", "4.878410118105863E-11", "1.369419945171454E-11"], ["-2.4477474894694E-15", "3.869295120716719E-15", "1.345232179829588E-12", "-1.288577817611629E-11", "1.369419945171454E-11", "1.041741526009742E-11"]], "elements": [{"label": "e", "name": "e", "sigma": 1.47407631403098e-08, "units": null, "title": "eccentricity", "value": ".4722089516890767"}, {"label": "q", "units": "au", "title": "perihelion distance", "value": ".8158479946408249", "sigma": 2.28061557079679e-08, "name": "q"}, {"label": "tp", "value": "2459686.060529626729", "title": "time of perihelion passage", "units": "TDB", "sigma": 3.15587587647949e-06, "name": "tp"}, {"label": "node", "value": "303.6654104822761", "title": "longitude of the ascending node", "units": "deg", "sigma": 5.78014585517813e-06, "name": "om"}, {"units": "deg", "value": "231.1291403687353", "title": "argument of perihelion", "name": "w", "sigma": 6.98456163127355e-06, "label": "peri"}, {"label": "i", "sigma": 3.22760209135163e-06, "name": "i", "title": "inclination", "value": "13.53572378285234", "units": "deg"}], "labels": ["e", "q", "tp", "node", "peri", "i"], "epoch": "2459709.5"}, "elements": [{"sigma": "1.4734E-8", "name": "e", "title": "eccentricity", "value": ".4716796900213302", "units": null, "label": "e"}, {"units": "au", "title": "semi-major axis", "value": "1.545652693611843", "name": "a", "sigma": "1.6977E-10", "label": "a"}, {"label": "q", "name": "q", "sigma": "2.2774E-8", "title": "perihelion distance", "value": ".8165997102083746", "units": "au"}, {"label": "i", "sigma": "3.2276E-6", "name": "i", "units": "deg", "value": "13.53154621373631", "title": "inclination; angle with respect to x-y ecliptic plane"}, {"label": "node", "name": "om", "sigma": "5.7759E-6", "units": "deg", "title": "longitude of the ascending node", "value": "303.5800012983715"}, {"units": "deg", "title": "argument of perihelion", "value": "231.2318569741495", "sigma": "6.9877E-6", "name": "w", "label": "peri"}, {"units": "deg", "value": "56.46936196965999", "title": "mean anomaly", "sigma": "1.8281E-6", "name": "ma", "label": "M"}, {"sigma": "3.5468E-6", "name": "tp", "value": "2461090.402697225088", "title": "time of perihelion passage", "units": "TDB", "label": "tp"}, {"label": "period", "value": "701.8855467193628", "title": "sidereal orbital period", "units": "d", "sigma": "1.1564E-7", "name": "per"}, {"name": "n", "sigma": "8.4503E-11", "value": ".5129041361268264", "title": "mean motion", "units": "deg/d", "label": "n"}, {"label": "Q", "name": "ad", "sigma": "2.4984E-10", "units": "au", "title": "aphelion distance", "value": "2.274705677015311"}], "epoch": "2461200.5"}